start=new Date('2023-02-11T00:00:00.000Z').valueOf();
sats=[{"REF_FRAME":"TEME","FILE":"3785071","NORAD_CAT_ID":"49457","TIME_SYSTEM":"UTC","RA_OF_ASC_NODE":"220.4658","ARG_OF_PERICENTER":"80.4958","MEAN_MOTION_DDOT":"0.0000000000000","ELEMENT_SET_NO":"999","TLE_LINE2":"2 49457  53.2129 220.4658 0001259  80.4958 279.6176 15.08847862 69249","MEAN_MOTION_DOT":"0.00008178","MEAN_ELEMENT_THEORY":"SGP4","TLE_LINE1":"1 49457U 21104BB  23041.68971115  .00008178  00000-0  53122-3 0  9995","ECCENTRICITY":"0.00012590","INCLINATION":"53.2129","SITE":"AFETR","RCS_SIZE":"LARGE","PERIOD":"95.437","MEAN_ANOMALY":"279.6176","OBJECT_TYPE":"PAYLOAD","GP_ID":"225071932","REV_AT_EPOCH":"6924","COUNTRY_CODE":"US","CENTER_NAME":"EARTH","EPHEMERIS_TYPE":"0","OBJECT_ID":"2021-104BB","DECAY_DATE":null,"EPOCH":"2023-02-10T16:33:11.043360","MEAN_MOTION":"15.08847862","CLASSIFICATION_TYPE":"U","OBJECT_NAME":"STARLINK-3132","BSTAR":"0.00053122000000","SEMIMAJOR_AXIS":"6917.856","PERIAPSIS":"538.850","LAUNCH_DATE":"2021-11-13","APOAPSIS":"540.592"},{"REV_AT_EPOCH":"6926","COUNTRY_CODE":"US","CENTER_NAME":"EARTH","PERIOD":"95.437","RCS_SIZE":"LARGE","MEAN_ANOMALY":"265.2719","INCLINATION":"53.2162","SITE":"AFETR","OBJECT_TYPE":"PAYLOAD","GP_ID":"225071184","BSTAR":"0.00017096000000","SEMIMAJOR_AXIS":"6917.857","OBJECT_NAME":"STARLINK-3156","CLASSIFICATION_TYPE":"U","APOAPSIS":"540.605","LAUNCH_DATE":"2021-11-13","PERIAPSIS":"538.839","EPHEMERIS_TYPE":"0","OBJECT_ID":"2021-104BC","MEAN_MOTION":"15.08847658","EPOCH":"2023-02-10T19:54:32.936832","DECAY_DATE":null,"TLE_LINE2":"2 49458  53.2162 219.8321 0001276  94.8419 265.2719 15.08847658 69265","ELEMENT_SET_NO":"999","MEAN_MOTION_DDOT":"0.0000000000000","FILE":"3785071","REF_FRAME":"TEME","NORAD_CAT_ID":"49458","TIME_SYSTEM":"UTC","RA_OF_ASC_NODE":"219.8321","ARG_OF_PERICENTER":"94.8419","ECCENTRICITY":"0.00012760","MEAN_MOTION_DOT":"0.00002435","TLE_LINE1":"1 49458U 21104BC  23041.82954788  .00002435  00000-0  17096-3 0  9999","MEAN_ELEMENT_THEORY":"SGP4"},{"ECCENTRICITY":"0.00010820","MEAN_ELEMENT_THEORY":"SGP4","TLE_LINE1":"1 49459U 21104BD  23041.68603085  .00002148  00000-0  15301-3 0  9993","MEAN_MOTION_DOT":"0.00002148","ELEMENT_SET_NO":"999","MEAN_MOTION_DDOT":"0.0000000000000","TLE_LINE2":"2 49459  53.2125 220.4838 0001082  88.6156 271.4960 15.08843413 69240","RA_OF_ASC_NODE":"220.4838","ARG_OF_PERICENTER":"88.6156","REF_FRAME":"TEME","FILE":"3785071","NORAD_CAT_ID":"49459","TIME_SYSTEM":"UTC","PERIAPSIS":"538.986","LAUNCH_DATE":"2021-11-13","APOAPSIS":"540.483","CLASSIFICATION_TYPE":"U","OBJECT_NAME":"STARLINK-3141","BSTAR":"0.00015301000000","SEMIMAJOR_AXIS":"6917.870","DECAY_DATE":null,"MEAN_MOTION":"15.08843413","EPOCH":"2023-02-10T16:27:53.065440","EPHEMERIS_TYPE":"0","OBJECT_ID":"2021-104BD","REV_AT_EPOCH":"6924","COUNTRY_CODE":"US","CENTER_NAME":"EARTH","OBJECT_TYPE":"PAYLOAD","GP_ID":"225070935","SITE":"AFETR","INCLINATION":"53.2125","RCS_SIZE":"LARGE","MEAN_ANOMALY":"271.4960","PERIOD":"95.437"},{"PERIAPSIS":"538.882","LAUNCH_DATE":"2021-11-13","APOAPSIS":"540.643","CLASSIFICATION_TYPE":"U","OBJECT_NAME":"STARLINK-3140","SEMIMAJOR_AXIS":"6917.898","BSTAR":"0.00010794000000","DECAY_DATE":null,"MEAN_MOTION":"15.08834376","EPOCH":"2023-02-10T16:22:35.663808","EPHEMERIS_TYPE":"0","OBJECT_ID":"2021-104BE","REV_AT_EPOCH":"6923","COUNTRY_CODE":"US","CENTER_NAME":"EARTH","OBJECT_TYPE":"PAYLOAD","GP_ID":"225072185","SITE":"AFETR","INCLINATION":"53.2140","MEAN_ANOMALY":"279.6214","RCS_SIZE":"LARGE","PERIOD":"95.438","ECCENTRICITY":"0.00012730","MEAN_ELEMENT_THEORY":"SGP4","TLE_LINE1":"1 49460U 21104BE  23041.68235722  .00001430  00000-0  10794-3 0  9998","MEAN_MOTION_DOT":"0.00001430","ELEMENT_SET_NO":"999","MEAN_MOTION_DDOT":"0.0000000000000","TLE_LINE2":"2 49460  53.2140 220.5020 0001273  80.4922 279.6214 15.08834376 69235","RA_OF_ASC_NODE":"220.5020","ARG_OF_PERICENTER":"80.4922","REF_FRAME":"TEME","FILE":"3785071","NORAD_CAT_ID":"49460","TIME_SYSTEM":"UTC"},{"FILE":"3785071","REF_FRAME":"TEME","NORAD_CAT_ID":"49724","TIME_SYSTEM":"UTC","RA_OF_ASC_NODE":"149.9876","ARG_OF_PERICENTER":"67.1305","TLE_LINE2":"2 49724  53.2148 149.9876 0000769  67.1305 292.9768 15.08888903 66015","ELEMENT_SET_NO":"999","MEAN_MOTION_DDOT":"0.0000000000000","MEAN_MOTION_DOT":"0.00050399","MEAN_ELEMENT_THEORY":"SGP4","TLE_LINE1":"1 49724U 21115A   23041.79646283  .00050399  00000-0  31580-2 0  9996","ECCENTRICITY":"0.00007690","MEAN_ANOMALY":"292.9768","RCS_SIZE":"LARGE","PERIOD":"95.434","INCLINATION":"53.2148","SITE":"AFETR","OBJECT_TYPE":"PAYLOAD","GP_ID":"225070946","COUNTRY_CODE":"US","REV_AT_EPOCH":"6601","CENTER_NAME":"EARTH","EPHEMERIS_TYPE":"0","OBJECT_ID":"2021-115A","EPOCH":"2023-02-10T19:06:54.388512","MEAN_MOTION":"15.08888903","DECAY_DATE":null,"BSTAR":"0.00315800000000","SEMIMAJOR_AXIS":"6917.731","CLASSIFICATION_TYPE":"U","OBJECT_NAME":"STARLINK-3219","APOAPSIS":"540.128","LAUNCH_DATE":"2021-12-02","PERIAPSIS":"539.064"},{"ECCENTRICITY":"0.00014790","MEAN_ELEMENT_THEORY":"SGP4","TLE_LINE1":"1 49725U 21115B   23041.56948147  .00020786  00000-0  13797-2 0  9993","MEAN_MOTION_DOT":"0.00020786","TLE_LINE2":"2 49725  53.2143 151.0562 0001479 104.7362 255.3793 15.07215366 65989","ELEMENT_SET_NO":"999","MEAN_MOTION_DDOT":"0.0000000000000","RA_OF_ASC_NODE":"151.0562","ARG_OF_PERICENTER":"104.7362","FILE":"3785071","REF_FRAME":"TEME","TIME_SYSTEM":"UTC","NORAD_CAT_ID":"49725","LAUNCH_DATE":"2021-12-02","APOAPSIS":"545.740","PERIAPSIS":"543.692","BSTAR":"0.00137970000000","SEMIMAJOR_AXIS":"6922.851","CLASSIFICATION_TYPE":"U","OBJECT_NAME":"STARLINK-3218","EPOCH":"2023-02-10T13:40:03.199008","MEAN_MOTION":"15.07215366","DECAY_DATE":null,"EPHEMERIS_TYPE":"0","OBJECT_ID":"2021-115B","COUNTRY_CODE":"US","REV_AT_EPOCH":"6598","CENTER_NAME":"EARTH","OBJECT_TYPE":"PAYLOAD","GP_ID":"225072196","RCS_SIZE":"LARGE","MEAN_ANOMALY":"255.3793","PERIOD":"95.540","SITE":"AFETR","INCLINATION":"53.2143"},{"MEAN_ANOMALY":"292.7204","RCS_SIZE":"LARGE","PERIOD":"95.436","INCLINATION":"53.2148","SITE":"AFETR","GP_ID":"225072443","OBJECT_TYPE":"PAYLOAD","CENTER_NAME":"EARTH","COUNTRY_CODE":"US","REV_AT_EPOCH":"6584","OBJECT_ID":"2021-115C","EPHEMERIS_TYPE":"0","EPOCH":"2023-02-10T14:12:45.169344","MEAN_MOTION":"15.08857549","DECAY_DATE":null,"SEMIMAJOR_AXIS":"6917.827","BSTAR":"0.00055053000000","CLASSIFICATION_TYPE":"U","OBJECT_NAME":"STARLINK-3237","LAUNCH_DATE":"2021-12-02","APOAPSIS":"540.643","PERIAPSIS":"538.741","TIME_SYSTEM":"UTC","NORAD_CAT_ID":"49726","FILE":"3785071","REF_FRAME":"TEME","ARG_OF_PERICENTER":"67.3934","RA_OF_ASC_NODE":"160.9060","TLE_LINE2":"2 49726  53.2148 160.9060 0001375  67.3934 292.7204 15.08857549 65844","MEAN_MOTION_DDOT":"0.0000000000000","ELEMENT_SET_NO":"999","MEAN_MOTION_DOT":"0.00008489","TLE_LINE1":"1 49726U 21115C   23041.59218946  .00008489  00000-0  55053-3 0  9992","MEAN_ELEMENT_THEORY":"SGP4","ECCENTRICITY":"0.00013750"},{"REV_AT_EPOCH":"6587","COUNTRY_CODE":"US","CENTER_NAME":"EARTH","PERIOD":"95.437","RCS_SIZE":"LARGE","MEAN_ANOMALY":"268.8122","INCLINATION":"53.2153","SITE":"AFETR","OBJECT_TYPE":"PAYLOAD","GP_ID":"225070696","BSTAR":"0.00032899000000","SEMIMAJOR_AXIS":"6917.843","CLASSIFICATION_TYPE":"U","OBJECT_NAME":"STARLINK-3242","LAUNCH_DATE":"2021-12-02","APOAPSIS":"540.860","PERIAPSIS":"538.557","EPHEMERIS_TYPE":"0","OBJECT_ID":"2021-115D","MEAN_MOTION":"15.08852090","EPOCH":"2023-02-10T19:04:12.338400","DECAY_DATE":null,"TLE_LINE2":"2 49727  53.2153 159.9978 0001664  91.3060 268.8122 15.08852090 65877","MEAN_MOTION_DDOT":"0.0000000000000","ELEMENT_SET_NO":"999","REF_FRAME":"TEME","FILE":"3785071","NORAD_CAT_ID":"49727","TIME_SYSTEM":"UTC","RA_OF_ASC_NODE":"159.9978","ARG_OF_PERICENTER":"91.3060","ECCENTRICITY":"0.00016640","MEAN_MOTION_DOT":"0.00004953","TLE_LINE1":"1 49727U 21115D   23041.79458725  .00004953  00000-0  32899-3 0  9991","MEAN_ELEMENT_THEORY":"SGP4"},{"PERIAPSIS":"538.818","LAUNCH_DATE":"2021-12-02","APOAPSIS":"540.642","CLASSIFICATION_TYPE":"U","OBJECT_NAME":"STARLINK-3240","SEMIMAJOR_AXIS":"6917.865","BSTAR":"0.00034312000000","DECAY_DATE":null,"EPOCH":"2023-02-10T14:23:21.134688","MEAN_MOTION":"15.08844955","OBJECT_ID":"2021-115E","EPHEMERIS_TYPE":"0","CENTER_NAME":"EARTH","REV_AT_EPOCH":"6584","COUNTRY_CODE":"US","GP_ID":"225071446","OBJECT_TYPE":"PAYLOAD","SITE":"AFETR","INCLINATION":"53.2176","RCS_SIZE":"LARGE","MEAN_ANOMALY":"269.2466","PERIOD":"95.437","ECCENTRICITY":"0.00013180","MEAN_ELEMENT_THEORY":"SGP4","TLE_LINE1":"1 49728U 21115E   23041.59955017  .00005178  00000-0  34312-3 0  9998","MEAN_MOTION_DOT":"0.00005178","ELEMENT_SET_NO":"999","MEAN_MOTION_DDOT":"0.0000000000000","TLE_LINE2":"2 49728  53.2176 160.8639 0001318  90.8677 269.2466 15.08844955 65846","ARG_OF_PERICENTER":"90.8677","RA_OF_ASC_NODE":"160.8639","NORAD_CAT_ID":"49728","TIME_SYSTEM":"UTC","FILE":"3785071","REF_FRAME":"TEME"},{"ECCENTRICITY":"0.00012980","MEAN_MOTION_DOT":"0.00001911","MEAN_ELEMENT_THEORY":"SGP4","TLE_LINE1":"1 49729U 21115F   23041.60322044  .00001911  00000-0  13808-3 0  9997","ELEMENT_SET_NO":"999","MEAN_MOTION_DDOT":"0.0000000000000","TLE_LINE2":"2 49729  53.2148 160.8559 0001298 116.0335 244.0791 15.08850154 65846","TIME_SYSTEM":"UTC","NORAD_CAT_ID":"49729","FILE":"3785071","REF_FRAME":"TEME","ARG_OF_PERICENTER":"116.0335","RA_OF_ASC_NODE":"160.8559","CLASSIFICATION_TYPE":"U","OBJECT_NAME":"STARLINK-3251","BSTAR":"0.00013808000000","SEMIMAJOR_AXIS":"6917.849","PERIAPSIS":"538.816","APOAPSIS":"540.612","LAUNCH_DATE":"2021-12-02","OBJECT_ID":"2021-115F","EPHEMERIS_TYPE":"0","DECAY_DATE":null,"EPOCH":"2023-02-10T14:28:38.246016","MEAN_MOTION":"15.08850154","CENTER_NAME":"EARTH","REV_AT_EPOCH":"6584","COUNTRY_CODE":"US","INCLINATION":"53.2148","SITE":"AFETR","RCS_SIZE":"LARGE","MEAN_ANOMALY":"244.0791","PERIOD":"95.437","GP_ID":"225071698","OBJECT_TYPE":"PAYLOAD"}];
